NORAD_CAT_ID,OBJECT_NAME,OBJECT_TYPE,EPOCH,MEAN_MOTION,ECCENTRICITY,INCLINATION,RA_OF_ASC_NODE,ARG_OF_PERICENTER,MEAN_ANOMALY,BSTAR,MEAN_MOTION_DOT,MEAN_MOTION_DDOT,TLE_LINE0,TLE_LINE1,TLE_LINE2,SEMIMAJOR_AXIS,PERIOD,APOGEE,PERIGEE,DECAYED
55963.0,STARLINK-5924,PAYLOAD,2024-07-26 15:51:04,14.98341815,0.000305,70.0009,314.6137,269.9883,90.0926,0.00014963,1.693e-05,0.0,0 STARLINK-5924,1 55963U 23037BB  24208.66046452  .00001693  00000-0  14963-3 0  9997,2 55963  70.0009 314.6137 0003050 269.9883  90.0926 14.98341815 76287,6950.156,96.106,574.141,569.902,0.0
55963.0,STARLINK-5924,PAYLOAD,2024-07-27 09:28:33,14.9833277,0.0002871,69.9994,312.7609,251.9903,108.0944,-6.1798e-06,-1.67e-06,0.0,0 STARLINK-5924,1 55963U 23037BB  24209.39483158 -.00000167  00000-0 -61798-5 0  9993,2 55963  69.9994 312.7609 0002871 251.9903 108.0944 14.98332770 76396,6950.184,96.107,574.045,570.054,0.0
55963.0,STARLINK-5924,PAYLOAD,2024-07-27 17:29:14,14.9832614,0.0002898,69.9995,311.9186,265.4345,94.6483,-0.0001022,-1.312e-05,0.0,0 STARLINK-5924,1 55963U 23037BB  24209.72863932 -.00001312  00000-0 -10220-3 0  9997,2 55963  69.9995 311.9186 0002898 265.4345  94.6483 14.98326140 76108,6950.205,96.107,574.084,570.056,0.0
55963.0,STARLINK-5924,PAYLOAD,2024-07-28 12:42:50,14.98335762,0.0003166,70.0005,309.9012,261.795,98.285,4.791e-05,4.79e-06,0.0,0 STARLINK-5924,1 55963U 23037BB  24210.52974789  .00000479  00000-0  47910-4 0  9998,2 55963  70.0005 309.9012 0003166 261.7950  98.2850 14.98335762 76566,6950.175,96.107,574.24,569.84,0.0
55963.0,STARLINK-5924,PAYLOAD,2024-07-28 17:31:13,14.98340977,0.0003199,70.0004,309.396,265.7393,94.3401,9.5716e-05,1.05e-05,0.0,0 STARLINK-5924,1 55963U 23037BB  24210.73002301  .00001050  00000-0  95716-4 0  9996,2 55963  70.0004 309.3960 0003199 265.7393  94.3401 14.98340977 76251,6950.159,96.106,574.247,569.801,0.0
55963.0,STARLINK-5924,PAYLOAD,2024-07-29 09:32:35,14.98324889,0.0003029,70.0006,307.713,264.7618,95.3195,6.3338e-05,6.63e-06,0.0,0 STARLINK-5924,1 55963U 23037BB  24211.39763413  .00000663  00000-0  63338-4 0  9991,2 55963  70.0006 307.7130 0003029 264.7618  95.3195 14.98324889 76698,6950.209,96.107,574.179,569.968,0.0
55963.0,STARLINK-5924,PAYLOAD,2024-07-29 15:57:07,14.98327341,0.0002967,70.0004,307.0397,266.9184,93.1635,6.6786e-05,7.04e-06,0.0,0 STARLINK-5924,1 55963U 23037BB  24211.66467334  .00000704  00000-0  66786-4 0  9990,2 55963  70.0004 307.0397 0002967 266.9184  93.1635 14.98327341 76394,6950.201,96.107,574.128,570.004,0.0
55963.0,STARLINK-5924,PAYLOAD,2024-07-30 09:34:36,14.98330755,0.0003,70.0004,305.1867,268.33,91.7515,3.6926e-05,3.48e-06,0.0,0 STARLINK-5924,1 55963U 23037BB  24212.39903205  .00000348  00000-0  36926-4 0  9990,2 55963  70.0004 305.1867 0003000 268.3300  91.7515 14.98330755 76844,6950.191,96.107,574.141,569.97,0.0
55963.0,STARLINK-5924,PAYLOAD,2024-07-30 15:59:08,14.9833589,0.0002895,70.0003,304.5132,265.5649,94.5179,4.7645e-05,4.76e-06,0.0,0 STARLINK-5924,1 55963U 23037BB  24212.66606802  .00000476  00000-0  47645-4 0  9995,2 55963  70.0003 304.5132 0002895 265.5649  94.5179 14.98335890 76546,6950.175,96.107,574.052,570.028,0.0
55963.0,STARLINK-5924,PAYLOAD,2024-07-31 12:48:51,14.98348933,0.0003035,70.0002,302.3261,269.8622,90.219,0.00025891,2.999e-05,0.0,0 STARLINK-5924,1 55963U 23037BB  24213.53393007  .00002999  00000-0  25891-3 0  9992,2 55963  70.0002 302.3261 0003035 269.8622  90.2190 14.98348933 77010,6950.134,96.106,574.109,569.89,0.0
55963.0,STARLINK-5924,PAYLOAD,2024-07-31 14:24:59,14.98346359,0.0002949,70.0002,302.1577,268.4882,91.5939,0.00032616,3.802e-05,0.0,0 STARLINK-5924,1 55963U 23037BB  24213.60068995  .00003802  00000-0  32616-3 0  9992,2 55963  70.0002 302.1577 0002949 268.4882  91.5939 14.98346359 76681,6950.142,96.106,574.057,569.958,0.0
55963.0,STARLINK-5924,PAYLOAD,2024-07-31 16:01:07,14.98343311,0.0002872,70.0003,301.9894,267.6238,92.4592,0.0004346,5.098e-05,0.0,0 STARLINK-5924,1 55963U 23037BB  24213.66744978  .00005098  00000-0  43460-3 0  9998,2 55963  70.0003 301.9894 0002872 267.6238  92.4592 14.98343311 76693,6950.152,96.106,574.013,570.021,0.0
55963.0,STARLINK-5924,PAYLOAD,2024-08-01 11:14:46,14.98328571,0.0002709,70.0005,299.9695,267.8599,92.225,1.6551e-05,1.05e-06,0.0,0 STARLINK-5924,1 55963U 23037BB  24214.46858866  .00000105  00000-0  16551-4 0  9995,2 55963  70.0005 299.9695 0002709 267.8599  92.2250 14.98328571 77153,6950.197,96.107,573.945,570.18,0.0
55963.0,STARLINK-5924,PAYLOAD,2024-08-01 16:03:10,14.98331621,0.0002899,70.0,299.4646,269.6476,90.4351,-1.8903e-06,-1.16e-06,0.0,0 STARLINK-5924,1 55963U 23037BB  24214.66886717 -.00000116  00000-0 -18903-5 0  9991,2 55963  70.0000 299.4646 0002899 269.6476  90.4351 14.98331621 76840,6950.188,96.107,574.068,570.038,0.0
55963.0,STARLINK-5924,PAYLOAD,2024-08-02 12:52:55,14.98332373,0.0002537,70.0009,297.2777,264.6905,95.3965,-0.00010648,-1.363e-05,0.0,0 STARLINK-5924,1 55963U 23037BB  24215.53674896 -.00001363  00000-0 -10648-3 0  9992,2 55963  70.0009 297.2777 0002537 264.6905  95.3965 14.98332373 77314,6950.186,96.107,573.814,570.287,0.0
55963.0,STARLINK-5924,PAYLOAD,2024-08-02 14:29:03,14.9833483,0.000265,70.0007,297.1099,264.7293,95.3563,-0.00010769,-1.378e-05,0.0,0 STARLINK-5924,1 55963U 23037BB  24215.60350706 -.00001378  00000-0 -10769-3 0  9991,2 55963  70.0007 297.1099 0002650 264.7293  95.3563 14.98334830 76981,6950.178,96.107,573.885,570.201,0.0
55963.0,STARLINK-5924,PAYLOAD,2024-08-02 22:29:43,14.98335741,0.000271,70.0005,296.2669,270.3606,89.7242,-7.0904e-05,-9.39e-06,0.0,0 STARLINK-5924,1 55963U 23037BB  24215.93730529 -.00000939  00000-0 -70904-4 0  9992,2 55963  70.0005 296.2669 0002710 270.3606  89.7242 14.98335741 77030,6950.175,96.107,573.924,570.157,0.0
55963.0,STARLINK-5924,PAYLOAD,2024-08-03 12:54:55,14.98329802,0.0002629,70.0003,294.7521,266.6536,93.4322,0.0001947,2.231e-05,0.0,0 STARLINK-5924,1 55963U 23037BB  24216.53814723  .00002231  00000-0  19470-3 0  9993,2 55963  70.0003 294.7521 0002629 266.6536  93.4322 14.98329802 77466,6950.194,96.107,573.886,570.231,0.0
55963.0,STARLINK-5924,PAYLOAD,2024-08-03 14:31:03,14.98331257,0.0002619,70.0003,294.5837,267.1991,92.8868,0.00021201,2.438e-05,0.0,0 STARLINK-5924,1 55963U 23037BB  24216.60490634  .00002438  00000-0  21201-3 0  9996,2 55963  70.0003 294.5837 0002619 267.1991  92.8868 14.98331257 77133,6950.189,96.107,573.874,570.234,0.0
55963.0,STARLINK-5924,PAYLOAD,2024-08-03 22:31:44,14.98333603,0.0002704,70.0002,293.7421,269.781,90.3039,-2.554e-05,-3.98e-06,0.0,0 STARLINK-5924,1 55963U 23037BB  24216.93870885 -.00000398  00000-0 -25540-4 0  9998,2 55963  70.0002 293.7421 0002704 269.7810  90.3039 14.98333603 77180,6950.182,96.107,573.926,570.167,0.0
55963.0,STARLINK-5924,PAYLOAD,2024-08-04 04:56:17,14.98320519,0.0002606,70.0003,293.069,269.3478,90.7383,6.9004e-05,7.3e-06,0.0,0 STARLINK-5924,1 55963U 23037BB  24217.20575875  .00000730  00000-0  69004-4 0  9991,2 55963  70.0003 293.0690 0002606 269.3478  90.7383 14.98320519 77569,6950.222,96.108,573.898,570.276,0.0
55963.0,STARLINK-5924,PAYLOAD,2024-08-04 12:57:00,14.98294336,0.0002714,70.0,292.2273,266.4824,93.6025,-0.00022517,-2.776e-05,0.0,0 STARLINK-5924,1 55963U 23037BB  24217.53958668 -.00002776  00000-0 -22517-3 0  9993,2 55963  70.0000 292.2273 0002714 266.4824  93.6025 14.98294336 77615,6950.303,96.109,574.054,570.282,0.0
55963.0,STARLINK-5924,PAYLOAD,2024-08-04 14:33:07,14.9829562,0.0002721,70.0013,292.059,268.04,92.0447,-0.00043174,-5.236e-05,0.0,0 STARLINK-5924,1 55963U 23037BB  24217.60633605 -.00005236  00000-0 -43174-3 0  9998,2 55963  70.0013 292.0590 0002721 268.0400  92.0447 14.98295620 77286,6950.299,96.109,574.055,570.273,0.0
55963.0,STARLINK-5924,PAYLOAD,2024-08-04 22:33:46,14.98320685,0.0003335,70.0011,291.2165,263.8631,96.2148,2.904e-05,2.53e-06,0.0,0 STARLINK-5924,1 55963U 23037BB  24217.94012546  .00000253  00000-0  29040-4 0  9999,2 55963  70.0011 291.2165 0003335 263.8631  96.2148 14.98320685 77334,6950.222,96.108,574.405,569.769,0.0
55963.0,STARLINK-5924,PAYLOAD,2024-08-05 12:58:57,14.9834825,0.0002663,70.0,289.7027,268.0486,92.0368,0.00026194,3.035e-05,0.0,0 STARLINK-5924,1 55963U 23037BB  24218.54094489  .00003035  00000-0  26194-3 0  9999,2 55963  70.0000 289.7027 0002663 268.0486  92.0368 14.98348250 77762,6950.136,96.106,573.852,570.151,0.0
55963.0,STARLINK-5924,PAYLOAD,2024-08-05 22:35:46,14.98341818,0.0002282,70.0011,288.6924,279.638,80.4522,0.00023353,2.695e-05,0.0,0 STARLINK-5924,1 55963U 23037BB  24218.94150772  .00002695  00000-0  23353-3 0  9996,2 55963  70.0011 288.6924 0002282 279.6380  80.4522 14.98341818 77481,6950.156,96.106,573.607,570.435,0.0
55963.0,STARLINK-5924,PAYLOAD,2024-08-06 05:00:18,14.98328945,0.0002708,70.0024,288.0164,266.276,93.809,0.00032471,3.783e-05,0.0,0 STARLINK-5924,1 55963U 23037BB  24219.20855189  .00003783  00000-0  32471-3 0  9990,2 55963  70.0024 288.0164 0002708 266.2760  93.8090 14.98328945 77868,6950.196,96.107,573.943,570.179,0.0
55963.0,STARLINK-5924,PAYLOAD,2024-08-06 13:00:59,14.98315813,0.0002918,69.9994,287.1778,266.5269,93.5556,0.00039559,4.628e-05,0.0,0 STARLINK-5924,1 55963U 23037BB  24219.54235951  .00004628  00000-0  39559-3 0  9999,2 55963  69.9994 287.1778 0002918 266.5269  93.5556 14.98315813 77912,6950.237,96.108,574.13,570.074,0.0
55963.0,STARLINK-5924,PAYLOAD,2024-08-06 14:37:07,14.98316989,0.0002901,69.9995,287.01,266.0011,94.0816,0.00039606,4.634e-05,0.0,0 STARLINK-5924,1 55963U 23037BB  24219.60911912  .00004634  00000-0  39606-3 0  9994,2 55963  69.9995 287.0100 0002901 266.0011  94.0816 14.98316989 77586,6950.233,96.108,574.114,570.082,0.0
55963.0,STARLINK-5924,PAYLOAD,2024-08-07 11:26:51,14.98348558,0.0002703,69.9996,284.8203,263.7263,96.3589,1.5492e-06,-7.4e-07,0.0,0 STARLINK-5924,1 55963U 23037BB  24220.47698586 -.00000074  00000-0  15492-5 0  9994,2 55963  69.9996 284.8203 0002703 263.7263  96.3589 14.98348558 78051,6950.136,96.106,573.879,570.122,0.0
